[{"OBJECT_NAME":"STARLINK-31329","OBJECT_ID":"2024-044T","EPOCH":"2026-03-09T11:56:28.518720","MEAN_MOTION":15.2757817,"ECCENTRICITY":0.00017143,"INCLINATION":43.0068,"RA_OF_ASC_NODE":108.3313,"ARG_OF_PERICENTER":285.706,"MEAN_ANOMALY":74.3603,"EPHEMERIS_TYPE":0,"CLASSIFICATION_TYPE":"U","NORAD_CAT_ID":59169,"ELEMENT_SET_NO":999,"REV_AT_EPOCH":11353,"BSTAR":-3.3548724e-5,"MEAN_MOTION_DOT":-1.185e-5,"MEAN_MOTION_DDOT":0},{"OBJECT_NAME":"TRANSPORTER-1 OBJECT AA","OBJECT_ID":"2021-006AA","EPOCH":"2026-03-09T22:58:14.761920","MEAN_MOTION":15.29982294,"ECCENTRICITY":0.00086604,"INCLINATION":97.2381,"RA_OF_ASC_NODE":112.457,"ARG_OF_PERICENTER":185.709,"MEAN_ANOMALY":174.4054,"EPHEMERIS_TYPE":0,"CLASSIFICATION_TYPE":"U","NORAD_CAT_ID":47437,"ELEMENT_SET_NO":999,"REV_AT_EPOCH":28414,"BSTAR":0.0002197941,"MEAN_MOTION_DOT":6.312e-5,"MEAN_MOTION_DDOT":0}]
